[{"OBJECT_NAME":"ION SCV-015","OBJECT_ID":"2023-185H","EPOCH":"2026-03-09T22:36:51.209568","MEAN_MOTION":15.3163624,"ECCENTRICITY":0.00109059,"INCLINATION":97.5772,"RA_OF_ASC_NODE":155.3582,"ARG_OF_PERICENTER":92.3805,"MEAN_ANOMALY":267.8685,"EPHEMERIS_TYPE":0,"CLASSIFICATION_TYPE":"U","NORAD_CAT_ID":58469,"ELEMENT_SET_NO":999,"REV_AT_EPOCH":12588,"BSTAR":0.00030895808,"MEAN_MOTION_DOT":9.376e-5,"MEAN_MOTION_DDOT":0},{"OBJECT_NAME":"STARLINK-34532","OBJECT_ID":"2025-137P","EPOCH":"2026-03-09T04:17:42.035136","MEAN_MOTION":15.30169384,"ECCENTRICITY":9.777e-5,"INCLINATION":53.161,"RA_OF_ASC_NODE":347.7638,"ARG_OF_PERICENTER":85.525,"MEAN_ANOMALY":274.5862,"EPHEMERIS_TYPE":0,"CLASSIFICATION_TYPE":"U","NORAD_CAT_ID":64607,"ELEMENT_SET_NO":999,"REV_AT_EPOCH":4051,"BSTAR":0.00093628197,"MEAN_MOTION_DOT":0.00027447,"MEAN_MOTION_DDOT":0}]
